{
"type": "FeatureCollection",
"name": "top_10_targets",
"crs": { "type": "name", "properties": { "name": "urn:ogc:def:crs:OGC:1.3:CRS84" } },
"features": [
{ "type": "Feature", "properties": { "rank": 1, "lat": 21.206259107492123, "lon": 79.198280299887102, "probability": 0.62079094409343982, "confidence": "low", "nearest_mine": "Kandri Mine", "distance_to_mine_km": 3.4672360788274705, "evidence": { "iron_oxide_index": 0.906152852423475, "ndvi_anomaly": -0.08350834392078324, "distance_to_known_mine_km": 3.4672360788274705 } }, "geometry": { "type": "Point", "coordinates": [ 79.198280299887102, 21.206259107492123 ] } },
{ "type": "Feature", "properties": { "rank": 2, "lat": 21.702454085598809, "lon": 79.712755829242752, "probability": 0.53892355733462105, "confidence": "medium", "nearest_mine": "Tirodi Mine", "distance_to_mine_km": 2.1646759543664196, "evidence": { "iron_oxide_index": 0.8776040843881758, "ndvi_anomaly": -0.12727001311715974, "distance_to_known_mine_km": 2.1646759543664196 } }, "geometry": { "type": "Point", "coordinates": [ 79.712755829242752, 21.702454085598809 ] } },
{ "type": "Feature", "properties": { "rank": 3, "lat": 21.777333791680409, "lon": 80.177943727605623, "probability": 0.49898942356879566, "confidence": "medium", "nearest_mine": "Ukwa Mine", "distance_to_mine_km": 3.2479561626896212, "evidence": { "iron_oxide_index": 0.9281449515266171, "ndvi_anomaly": 0.08322903111841817, "distance_to_known_mine_km": 3.247956162689621 } }, "geometry": { "type": "Point", "coordinates": [ 80.177943727605623, 21.777333791680409 ] } },
{ "type": "Feature", "properties": { "rank": 4, "lat": 21.859570857117237, "lon": 80.168524576429562, "probability": 0.42, "confidence": "low", "nearest_mine": "Balaghat Mine", "distance_to_mine_km": 4.9963209507788999, "evidence": { "iron_oxide_index": 0.9278256029456148, "ndvi_anomaly": -0.1375925438230254, "distance_to_known_mine_km": 4.9963209507789 } }, "geometry": { "type": "Point", "coordinates": [ 80.168524576429562, 21.859570857117237 ] } },
{ "type": "Feature", "properties": { "rank": 5, "lat": 21.689745930084662, "lon": 79.801357712525785, "probability": 0.42, "confidence": "low", "nearest_mine": "Munsar Mine", "distance_to_mine_km": 6.8948231577790358, "evidence": { "iron_oxide_index": 0.8976270396281799, "ndvi_anomaly": -0.017572006313185617, "distance_to_known_mine_km": 6.894823157779036 } }, "geometry": { "type": "Point", "coordinates": [ 79.801357712525785, 21.689745930084662 ] } },
{ "type": "Feature", "properties": { "rank": 6, "lat": 21.623200304871602, "lon": 79.776263847460839, "probability": 0.42, "confidence": "low", "nearest_mine": "Gumgaon Mine", "distance_to_mine_km": 8.2814076911441088, "evidence": { "iron_oxide_index": 0.9270138939520655, "ndvi_anomaly": -0.18141983491200092, "distance_to_known_mine_km": 8.281407691144109 } }, "geometry": { "type": "Point", "coordinates": [ 79.776263847460839, 21.623200304871602 ] } },
{ "type": "Feature", "properties": { "rank": 7, "lat": 21.729596282830016, "lon": 79.7916963211038, "probability": 0.42, "confidence": "low", "nearest_mine": "Dongri Buzurg Mine", "distance_to_mine_km": 6.8603588152115069, "evidence": { "iron_oxide_index": 0.9733551198429333, "ndvi_anomaly": 0.18625281322982373, "distance_to_known_mine_km": 6.860358815211507 } }, "geometry": { "type": "Point", "coordinates": [ 79.7916963211038, 21.729596282830016 ] } },
{ "type": "Feature", "properties": { "rank": 8, "lat": 21.774335017418402, "lon": 79.877366519256938, "probability": 0.42, "confidence": "low", "nearest_mine": "Chikla Mine", "distance_to_mine_km": 8.46717878493169, "evidence": { "iron_oxide_index": 0.9389502934465803, "ndvi_anomaly": -0.02393900250415948, "distance_to_known_mine_km": 8.46717878493169 } }, "geometry": { "type": "Point", "coordinates": [ 79.877366519256938, 21.774335017418402 ] } },
{ "type": "Feature", "properties": { "rank": 9, "lat": 21.639898744764761, "lon": 79.784174209027768, "probability": 0.42, "confidence": "low", "nearest_mine": "Beldongri Mine", "distance_to_mine_km": 2.9763058787582306, "evidence": { "iron_oxide_index": 0.9682116522702416, "ndvi_anomaly": -0.09648800735999324, "distance_to_known_mine_km": 2.9763058787582306 } }, "geometry": { "type": "Point", "coordinates": [ 79.784174209027768, 21.639898744764761 ] } },
{ "type": "Feature", "properties": { "rank": 10, "lat": 21.608433414566587, "lon": 79.832198712436835, "probability": 0.42, "confidence": "low", "nearest_mine": "Sitapatore Mine", "distance_to_mine_km": 7.3001782748318558, "evidence": { "iron_oxide_index": 0.9210723363146264, "ndvi_anomaly": -0.1260582177897892, "distance_to_known_mine_km": 7.300178274831856 } }, "geometry": { "type": "Point", "coordinates": [ 79.832198712436835, 21.608433414566587 ] } }
]
}
