{
"type": "FeatureCollection",
"name": "moil_mines",
"crs": { "type": "name", "properties": { "name": "urn:ogc:def:crs:OGC:1.3:CRS84" } },
"features": [
{ "type": "Feature", "properties": { "name": "Balaghat Mine", "lat": 21.8167, "lon": 80.1833, "type": "Underground" }, "geometry": { "type": "Point", "coordinates": [ 80.1833, 21.8167 ] } },
{ "type": "Feature", "properties": { "name": "Ukwa Mine", "lat": 21.75, "lon": 80.1667, "type": "Underground" }, "geometry": { "type": "Point", "coordinates": [ 80.1667, 21.75 ] } },
{ "type": "Feature", "properties": { "name": "Tirodi Mine", "lat": 21.6833, "lon": 79.7167, "type": "Underground" }, "geometry": { "type": "Point", "coordinates": [ 79.7167, 21.6833 ] } },
{ "type": "Feature", "properties": { "name": "Kandri Mine", "lat": 21.2167, "lon": 79.1667, "type": "Opencast" }, "geometry": { "type": "Point", "coordinates": [ 79.1667, 21.2167 ] } },
{ "type": "Feature", "properties": { "name": "Munsar Mine", "lat": 21.65, "lon": 79.75, "type": "Underground" }, "geometry": { "type": "Point", "coordinates": [ 79.75, 21.65 ] } },
{ "type": "Feature", "properties": { "name": "Gumgaon Mine", "lat": 21.6, "lon": 79.7, "type": "Underground" }, "geometry": { "type": "Point", "coordinates": [ 79.7, 21.6 ] } },
{ "type": "Feature", "properties": { "name": "Dongri Buzurg Mine", "lat": 21.7, "lon": 79.7333, "type": "Underground" }, "geometry": { "type": "Point", "coordinates": [ 79.7333, 21.7 ] } },
{ "type": "Feature", "properties": { "name": "Chikla Mine", "lat": 21.8, "lon": 79.8, "type": "Underground" }, "geometry": { "type": "Point", "coordinates": [ 79.8, 21.8 ] } },
{ "type": "Feature", "properties": { "name": "Beldongri Mine", "lat": 21.6667, "lon": 79.7833, "type": "Opencast" }, "geometry": { "type": "Point", "coordinates": [ 79.7833, 21.6667 ] } },
{ "type": "Feature", "properties": { "name": "Sitapatore Mine", "lat": 21.6333, "lon": 79.7667, "type": "Underground" }, "geometry": { "type": "Point", "coordinates": [ 79.7667, 21.6333 ] } },
{ "type": "Feature", "properties": { "name": "Ratnagiri Mine", "lat": 21.6167, "lon": 79.75, "type": "Underground" }, "geometry": { "type": "Point", "coordinates": [ 79.75, 21.6167 ] } }
]
}
